H1 CPF 01  gfz 2022 05 25 12  6452 tandemx   
H2 1003001  6202 36605    2022 05 25 12 59 42 2022 05 30 00 00 42   120 1 1  0 0 0
H9
10 0 59725  26622.000000  0   -4052030.256   2231137.421   5094310.812
10 0 59725  26742.000000  0   -3333495.392   2075154.341   5649349.915
10 0 59725  26862.000000  0   -2559898.558   1869869.149   6105012.364
10 0 59725  26982.000000  0   -1745607.782   1618041.489   6453323.270
10 0 59725  27102.000000  0    -905631.110   1323496.196   6688195.332
10 0 59725  27222.000000  0     -55337.709    991064.344   6805527.846
10 0 59725  27342.000000  0     789822.834    626503.235   6803273.452
10 0 59725  27462.000000  0    1614600.205    236396.638   6681471.467
10 0 59725  27582.000000  0    2404217.267   -171963.355   6442247.488
10 0 59725  27702.000000  0    3144634.593   -590711.889   6089779.871
10 0 59725  27822.000000  0    3822802.275  -1011561.413   5630231.489
10 0 59725  27942.000000  0    4426893.857  -1425964.484   5071647.411
10 0 59725  28062.000000  0    4946517.651  -1825286.454   4423819.898
10 0 59725  28182.000000  0    5372903.531  -2200983.998   3698122.345
10 0 59725  28302.000000  0    5699060.335  -2544786.985   2907311.921
10 0 59725  28422.000000  0    5919897.836  -2848879.071   2065304.309
10 0 59725  28542.000000  0    6032311.963  -3106072.108   1186926.493
10 0 59725  28662.000000  0    6035231.943  -3309971.309    287649.873
10 0 59725  28782.000000  0    5929624.838  -3455125.158   -616690.356
10 0 59725  28902.000000  0    5718460.049  -3537157.433  -1510183.393
10 0 59725  29022.000000  0    5406631.276  -3552876.172  -2377131.890
10 0 59725  29142.000000  0    5000841.626  -3500358.715  -3202333.677
10 0 59725  29262.000000  0    4509454.120  -3379010.564  -3971352.390
10 0 59725  29382.000000  0    3942311.652  -3189597.059  -4670770.167
10 0 59725  29502.000000  0    3310531.280  -2934246.743  -5288418.438
10 0 59725  29622.000000  0    2626279.118  -2616427.174  -5813581.361
10 0 59725  29742.000000  0    1902532.623  -2240896.320  -6237171.097
10 0 59725  29862.000000  0    1152833.290  -1813629.230  -6551875.696
10 0 59725  29982.000000  0     391033.203  -1341719.779  -6752274.752
10 0 59725  30102.000000  0    -368957.578   -833262.414  -6834922.291
10 0 59725  30222.000000  0   -1113419.277   -297215.180  -6798398.703
10 0 59725  30342.000000  0   -1829064.184    256754.456  -6643332.362
10 0 59725  30462.000000  0   -2503268.275    818439.516  -6372389.163
10 0 59725  30582.000000  0   -3124288.775   1377276.375  -5990231.744
10 0 59725  30702.000000  0   -3681466.184   1922538.476  -5503448.645
10 0 59725  30822.000000  0   -4165409.371   2443538.657  -4920452.795
10 0 59725  30942.000000  0   -4568158.898   2929837.344  -4251347.042
10 0 59725  31062.000000  0   -4883324.127   3371451.172  -3507758.895
10 0 59725  31182.000000  0   -5106192.739   3759058.950  -2702647.968
10 0 59725  31302.000000  0   -5233809.226   4084200.676  -1850085.216
10 0 59725  31422.000000  0   -5265019.906   4339463.586   -965008.943
10 0 59725  31542.000000  0   -5200483.098   4518651.281    -62960.603
10 0 59725  31662.000000  0   -5042642.567   4616931.370    840194.126
10 0 59725  31782.000000  0   -4795663.976   4630955.823   1728553.684
10 0 59725  31902.000000  0   -4465335.854   4558951.109   2586470.075
10 0 59725  32022.000000  0   -4058937.509   4400776.892   3398832.891
10 0 59725  32142.000000  0   -3585078.129   4157951.194   4151342.013
10 0 59725  32262.000000  0   -3053511.973   3833641.530   4830763.295
10 0 59725  32382.000000  0   -2474933.670   3432622.778   5425163.178
10 0 59725  32502.000000  0   -1860758.142   2961202.717   5924116.796
10 0 59725  32622.000000  0   -1222890.938   2427117.572   6318886.641
10 0 59725  32742.000000  0    -573494.265   1839399.531   6602568.637
10 0 59725  32862.000000  0      75244.567   1208220.952   6770206.176
10 0 59725  32982.000000  0     711341.884    544716.253   6818872.051
10 0 59725  33102.000000  0    1323238.252   -139214.510   6747715.699
10 0 59725  33222.000000  0    1900007.496   -831118.247   6557977.865
10 0 59725  33342.000000  0    2431551.454  -1518215.214   6252970.606
10 0 59725  33462.000000  0    2908777.828  -2187634.325   5838024.068
10 0 59725  33582.000000  0    3323758.582  -2826655.315   5320398.629
10 0 59725  33702.000000  0    3669864.921  -3422952.306   4709163.738
10 0 59725  33822.000000  0    3941877.425  -3964835.146   4015044.493
10 0 59725  33942.000000  0    4136068.721  -4441483.477   3250236.839
10 0 59725  34062.000000  0    4250256.171  -4843168.368   2428194.412
10 0 59725  34182.000000  0    4283823.867  -5161455.995   1563389.758
10 0 59725  34302.000000  0    4237712.238  -5389387.866    671054.434
10 0 59725  34422.000000  0    4114375.109  -5521632.535   -233096.396
10 0 59725  34542.000000  0    3917707.153  -5554606.268  -1133148.187
10 0 59725  34662.000000  0    3652941.179  -5486559.092  -2013276.957
10 0 59725  34782.000000  0    3326518.648  -5317622.333  -2858034.809
10 0 59725  34902.000000  0    2945938.123  -5049818.723  -3652626.826
10 0 59725  35022.000000  0    2519583.910  -4687034.225  -4383172.547
10 0 59725  35142.000000  0    2056540.358  -4234953.503  -5036946.539
10 0 59725  35262.000000  0    1566397.856  -3700960.658  -5602593.755
10 0 59725  35382.000000  0    1059055.119  -3094009.954  -6070317.067
10 0 59725  35502.000000  0     544520.551  -2424469.820  -6432036.366
10 0 59725  35622.000000  0      32716.890  -1703941.767  -6681517.227
10 0 59725  35742.000000  0    -466706.187   -945058.067  -6814467.654
10 0 59725  35862.000000  0    -944548.718   -161262.260  -6828603.694
10 0 59725  35982.000000  0   -1392225.530    633424.095  -6723683.583
10 0 59725  36102.000000  0   -1801916.932   1424645.501  -6501511.002
10 0 59725  36222.000000  0   -2166701.928   2197965.334  -6165907.300
10 0 59725  36342.000000  0   -2480673.979   2939123.109  -5722653.991
10 0 59725  36462.000000  0   -2739037.176   3634294.766  -5179403.589
10 0 59725  36582.000000  0   -2938181.372   4270350.710  -4545559.560
10 0 59725  36702.000000  0   -3075734.957   4835107.610  -3832124.024
10 0 59725  36822.000000  0   -3150592.336   5317566.930  -3051514.823
10 0 59725  36942.000000  0   -3162916.272   5708135.634  -2217357.119
10 0 59725  37062.000000  0   -3114115.790   5998826.904  -1344249.806
10 0 59725  37182.000000  0   -3006796.893   6183432.352   -447508.486
10 0 59725  37302.000000  0   -2844689.321   6257660.169    457106.054
10 0 59725  37422.000000  0   -2632551.407   6219239.772   1353672.378
10 0 59725  37542.000000  0   -2376050.281   6067983.266   2226400.420
10 0 59725  37662.000000  0   -2081623.415   5805802.588   3059918.835
10 0 59725  37782.000000  0   -1756326.651   5436684.973   3839552.481
10 0 59725  37902.000000  0   -1407672.119   4966627.636   4551585.636
10 0 59725  38022.000000  0   -1043459.359   4403532.708   5183506.136
10 0 59725  38142.000000  0    -671602.931   3757065.152   5724224.392
10 0 59725  38262.000000  0    -299963.536   3038478.535   6164264.617
10 0 59725  38382.000000  0      63815.868   2260411.044   6495925.649
10 0 59725  38502.000000  0     412465.030   1436658.510   6713409.529
10 0 59725  38622.000000  0     739230.198    581926.185   6812917.500
10 0 59725  38742.000000  0    1038003.460   -288434.331   6792711.129
10 0 59725  38862.000000  0    1303436.023  -1158699.758   6653141.857
10 0 59725  38982.000000  0    1531033.932  -2013058.988   6396645.612
10 0 59725  39102.000000  0    1717234.538  -2835900.230   6027703.575
10 0 59725  39222.000000  0    1859462.584  -3612098.170   5552768.559
10 0 59725  39342.000000  0    1956164.684  -4327295.183   4980157.003
10 0 59725  39462.000000  0    2006822.238  -4968170.643   4319908.846
10 0 59725  39582.000000  0    2011943.495  -5522696.736   3583617.442
10 0 59725  39702.000000  0    1973032.562  -5980373.835   2784227.345
10 0 59725  39822.000000  0    1892535.607  -6332437.503   1935805.705
10 0 59725  39942.000000  0    1773768.180  -6572033.797   1053292.141
10 0 59725  40062.000000  0    1620823.211  -6694359.583    152230.479
10 0 59725  40182.000000  0    1438461.829  -6696763.717   -751512.550
10 0 59725  40302.000000  0    1231989.361  -6578804.164  -1642038.458
10 0 59725  40422.000000  0    1007119.846  -6342256.858  -2503705.222
10 0 59725  40542.000000  0     769833.986  -5991081.367  -3321408.005
10 0 59725  40662.000000  0     526235.621  -5531343.826  -4080847.113
10 0 59725  40782.000000  0     282407.193  -4971099.616  -4768777.895
10 0 59725  40902.000000  0      44268.953  -4320239.395  -5373236.957
10 0 59725  41022.000000  0    -182554.483  -3590303.581  -5883742.652
10 0 59725  41142.000000  0    -392857.643  -2794268.763  -6291466.719
10 0 59725  41262.000000  0    -581965.329  -1946311.716  -6589375.461
10 0 59725  41382.000000  0    -745829.702  -1061555.628  -6772339.615
10 0 59725  41502.000000  0    -881111.686   -155802.997  -6837213.850
10 0 59725  41622.000000  0    -985245.358    754741.936  -6782884.186
10 0 59725  41742.000000  0   -1056484.931   1653755.324  -6610284.322
10 0 59725  41862.000000  0   -1093933.562   2525078.763  -6322381.174
10 0 59725  41982.000000  0   -1097553.440   3353003.040  -5924130.713
10 0 59725  42102.000000  0   -1068157.496   4122548.819  -5422402.165
10 0 59725  42222.000000  0   -1007382.069   4819737.585  -4825870.608
10 0 59725  42342.000000  0    -917641.649   5431850.268  -4144878.646
10 0 59725  42462.000000  0    -802065.863   5947667.194  -3391266.574
10 0 59725  42582.000000  0    -664419.490   6357683.545  -2578174.161
10 0 59725  42702.000000  0    -509007.046   6654296.811  -1719816.615
10 0 59725  42822.000000  0    -340564.328   6831960.183   -831236.739
10 0 59725  42942.000000  0    -164138.632   6887297.695     71961.129
10 0 59725  43062.000000  0      15039.449   6819177.691    973891.126
99
